[{"OBJECT_NAME":"STARLINK-2501","OBJECT_ID":"2021-036BG","EPOCH":"2026-03-10T00:00:02.999808","MEAN_MOTION":15.29218033,"ECCENTRICITY":0.00014517,"INCLINATION":53.1521,"RA_OF_ASC_NODE":99.2979,"ARG_OF_PERICENTER":95.6918,"MEAN_ANOMALY":344.596,"EPHEMERIS_TYPE":0,"CLASSIFICATION_TYPE":"U","NORAD_CAT_ID":48330,"ELEMENT_SET_NO":999,"REV_AT_EPOCH":579,"BSTAR":0.0042586451,"MEAN_MOTION_DOT":0.00124074,"MEAN_MOTION_DDOT":0},{"OBJECT_NAME":"DANDE","OBJECT_ID":"2013-055C","EPOCH":"2026-03-09T22:31:17.292576","MEAN_MOTION":14.76534852,"ECCENTRICITY":0.04736914,"INCLINATION":80.988,"RA_OF_ASC_NODE":283.8166,"ARG_OF_PERICENTER":234.3414,"MEAN_ANOMALY":121.2825,"EPHEMERIS_TYPE":0,"CLASSIFICATION_TYPE":"U","NORAD_CAT_ID":39267,"ELEMENT_SET_NO":999,"REV_AT_EPOCH":64554,"BSTAR":0.00031071998,"MEAN_MOTION_DOT":0.00015936,"MEAN_MOTION_DDOT":0}]
